[
  {
    "street": "Ridge Court",
    "city": "Belvoir",
    "state": "Nevada",
    "mailId": "twilamcfarland@irack.com",
    "phoneNumber": "+91 (819) 535-2561",
    "pincode": "576982"
  },
  {
    "street": "Billings Place",
    "city": "Haena",
    "state": "American Samoa",
    "mailId": "twilamcfarland@irack.com",
    "phoneNumber": "+91 (914) 431-2733",
    "pincode": "556290"
  },
  {
    "street": "Hillel Place",
    "city": "Osmond",
    "state": "South Dakota",
    "mailId": "twilamcfarland@irack.com",
    "phoneNumber": "+91 (918) 522-3166",
    "pincode": "545866"
  },
  {
    "street": "Forbell Street",
    "city": "Camas",
    "state": "New Hampshire",
    "mailId": "twilamcfarland@irack.com",
    "phoneNumber": "+91 (859) 457-2055",
    "pincode": "577758"
  },
  {
    "street": "Farragut Road",
    "city": "Bancroft",
    "state": "Puerto Rico",
    "mailId": "twilamcfarland@irack.com",
    "phoneNumber": "+91 (943) 493-3267",
    "pincode": "551318"
  },
  {
    "street": "Raleigh Place",
    "city": "Ellerslie",
    "state": "Louisiana",
    "mailId": "twilamcfarland@irack.com",
    "phoneNumber": "+91 (812) 581-2081",
    "pincode": "575036"
  },
  {
    "street": "Elliott Walk",
    "city": "Barrelville",
    "state": "Pennsylvania",
    "mailId": "twilamcfarland@irack.com",
    "phoneNumber": "+91 (992) 425-2508",
    "pincode": "549199"
  },
  {
    "street": "Knickerbocker Avenue",
    "city": "Wawona",
    "state": "Delaware",
    "mailId": "twilamcfarland@irack.com",
    "phoneNumber": "+91 (936) 472-3495",
    "pincode": "568310"
  },
  {
    "street": "Sutton Street",
    "city": "Westphalia",
    "state": "Marshall Islands",
    "mailId": "twilamcfarland@irack.com",
    "phoneNumber": "+91 (806) 561-2931",
    "pincode": "574076"
  },
  {
    "street": "Cedar Street",
    "city": "Greenfields",
    "state": "Utah",
    "mailId": "twilamcfarland@irack.com",
    "phoneNumber": "+91 (958) 565-2248",
    "pincode": "553123"
  }
]